[{"OBJECT_NAME":"STARLINK-3832","OBJECT_ID":"2022-052BA","EPOCH":"2026-03-09T17:27:42.180192","MEAN_MOTION":15.08839779,"ECCENTRICITY":0.00014736,"INCLINATION":53.2169,"RA_OF_ASC_NODE":258.9908,"ARG_OF_PERICENTER":82.0163,"MEAN_ANOMALY":278.0997,"EPHEMERIS_TYPE":0,"CLASSIFICATION_TYPE":"U","NORAD_CAT_ID":52646,"ELEMENT_SET_NO":999,"REV_AT_EPOCH":21114,"BSTAR":0.00013744745,"MEAN_MOTION_DOT":1.9e-5,"MEAN_MOTION_DDOT":0},{"OBJECT_NAME":"CZ-6A DEB","OBJECT_ID":"2024-140UQ","EPOCH":"2026-03-09T14:36:35.114400","MEAN_MOTION":15.29987293,"ECCENTRICITY":0.0094347,"INCLINATION":89.0483,"RA_OF_ASC_NODE":279.5661,"ARG_OF_PERICENTER":66.0307,"MEAN_ANOMALY":295.0787,"EPHEMERIS_TYPE":0,"CLASSIFICATION_TYPE":"U","NORAD_CAT_ID":61327,"ELEMENT_SET_NO":999,"REV_AT_EPOCH":8299,"BSTAR":0.0015211,"MEAN_MOTION_DOT":0.00050856,"MEAN_MOTION_DDOT":0}]
